{"type": "FeatureCollection", "features": [ {"type": "Feature", "properties": {"norad_id": 43437, "name": "SENTINEL-3B", "group": "resource", "lat": 40.754415202327024, "lon": 51.51073231702847, "alt_km": 798.6877113388882, "timestamp": "2025-12-19T22:41:52.036773+00:00", "meta": {"OBJECT_NAME": "SENTINEL-3B", "OBJECT_ID": "2018-039A", "EPOCH": "2025-12-19T15:46:20.299296", "MEAN_MOTION": 14.26736516, "ECCENTRICITY": 0.000163, "INCLINATION": 98.6259, "RA_OF_ASC_NODE": 58.7431, "ARG_OF_PERICENTER": 94.9149, "MEAN_ANOMALY": 265.2217, "EPHEMERIS_TYPE": 0, "CLASSIFICATION_TYPE": "U", "NORAD_CAT_ID": 43437, "ELEMENT_SET_NO": 999, "REV_AT_EPOCH": 39852, "BSTAR": 6.0427e-05, "MEAN_MOTION_DOT": 1.03e-06, "MEAN_MOTION_DDOT": 0}, "tle": {"line1": "1 43437U 18039A   25353.65717939  .00000103  00000+0  60427-4 0  9993", "line2": "2 43437  98.6259  58.7431 0001630  94.9149 265.2217 14.26736516398529"}}, "geometry": {"type": "Point", "coordinates": [51.51073231702847, 40.754415202327024]}}, {"type": "Feature", "properties": {"norad_id": 43461, "name": "GAOFEN-5 01", "group": "resource", "lat": -2.975482443004965, "lon": 136.59719323597116, "alt_km": 695.3547646286279, "timestamp": "2025-12-19T22:41:52.036784+00:00", "meta": {"OBJECT_NAME": "GAOFEN-5 01", "OBJECT_ID": "2018-043A", "EPOCH": "2025-12-19T15:17:08.096928", "MEAN_MOTION": 14.60416793, "ECCENTRICITY": 5.59e-05, "INCLINATION": 98.4334, "RA_OF_ASC_NODE": 316.7248, "ARG_OF_PERICENTER": 299.0857, "MEAN_ANOMALY": 61.0286, "EPHEMERIS_TYPE": 0, "CLASSIFICATION_TYPE": "U", "NORAD_CAT_ID": 43461, "ELEMENT_SET_NO": 999, "REV_AT_EPOCH": 40548, "BSTAR": 7.5886e-05, "MEAN_MOTION_DOT": 3.19e-06, "MEAN_MOTION_DDOT": 0}, "tle": {"line1": "1 43461U 18043A   25353.63689927  .00000319  00000+0  75886-4 0  9992", "line2": "2 43461  98.4334 316.7248 0000559 299.0857  61.0286 14.60416793405486"}}, "geometry": {"type": "Point", "coordinates": [136.59719323597116, -2.975482443004965]}}, {"type": "Feature", "properties": {"norad_id": 43484, "name": "GAOFEN-6", "group": "resource", "lat": -55.82429818138006, "lon": -133.68066151203445, "alt_km": 655.9837490863301, "timestamp": "2025-12-19T22:41:52.036794+00:00", "meta": {"OBJECT_NAME": "GAOFEN-6", "OBJECT_ID": "2018-048A", "EPOCH": "2025-12-19T18:22:38.030016", "MEAN_MOTION": 14.76579761, "ECCENTRICITY": 0.00129, "INCLINATION": 97.803, "RA_OF_ASC_NODE": 57.7971, "ARG_OF_PERICENTER": 42.8857, "MEAN_ANOMALY": 317.3357, "EPHEMERIS_TYPE": 0, "CLASSIFICATION_TYPE": "U", "NORAD_CAT_ID": 43484, "ELEMENT_SET_NO": 999, "REV_AT_EPOCH": 40691, "BSTAR": 0.00015005, "MEAN_MOTION_DOT": 9.99e-06, "MEAN_MOTION_DDOT": 0}, "tle": {"line1": "1 43484U 18048A   25353.76571794  .00000999  00000+0  15005-3 0  9998", "line2": "2 43484  97.8030  57.7971 0012900  42.8857 317.3357 14.76579761406916"}}, "geometry": {"type": "Point", "coordinates": [-133.68066151203445, -55.82429818138006]}}, {"type": "Feature", "properties": {"norad_id": 43585, "name": "GAOFEN-11 01", "group": "resource", "lat": 52.145813092263154, "lon": -113.87618818124218, "alt_km": 415.96077166930536, "timestamp": "2025-12-19T22:41:52.036804+00:00", "meta": {"OBJECT_NAME": "GAOFEN-11 01", "OBJECT_ID": "2018-063A", "EPOCH": "2025-12-19T19:03:01.306368", "MEAN_MOTION": 15.49407386, "ECCENTRICITY": 0.0003927, "INCLINATION": 97.1559, "RA_OF_ASC_NODE": 56.6701, "ARG_OF_PERICENTER": 277.1226, "MEAN_ANOMALY": 82.9579, "EPHEMERIS_TYPE": 0, "CLASSIFICATION_TYPE": "U", "NORAD_CAT_ID": 43585, "ELEMENT_SET_NO": 999, "REV_AT_EPOCH": 41251, "BSTAR": 0.00017758, "MEAN_MOTION_DOT": 9.658e-05, "MEAN_MOTION_DDOT": 0}, "tle": {"line1": "1 43585U 18063A   25353.79376512  .00009658  00000+0  17758-3 0  9999", "line2": "2 43585  97.1559  56.6701 0003927 277.1226  82.9579 15.49407386412516"}}, "geometry": {"type": "Point", "coordinates": [-113.87618818124218, 52.145813092263154]}}, {"type": "Feature", "properties": {"norad_id": 43613, "name": "ICESAT-2", "group": "resource", "lat": 36.41178266168906, "lon": -118.79869810487587, "alt_km": 478.49636468010067, "timestamp": "2025-12-19T22:41:52.036814+00:00", "meta": {"OBJECT_NAME": "ICESAT-2", "OBJECT_ID": "2018-070A", "EPOCH": "2025-12-19T17:49:28.149024", "MEAN_MOTION": 15.28316297, "ECCENTRICITY": 0.0003001, "INCLINATION": 92.0049, "RA_OF_ASC_NODE": 242.6271, "ARG_OF_PERICENTER": 128.1621, "MEAN_ANOMALY": 231.9899, "EPHEMERIS_TYPE": 0, "CLASSIFICATION_TYPE": "U", "NORAD_CAT_ID": 43613, "ELEMENT_SET_NO": 999, "REV_AT_EPOCH": 40505, "BSTAR": 0.0002977, "MEAN_MOTION_DOT": 8.209e-05, "MEAN_MOTION_DDOT": 0}, "tle": {"line1": "1 43613U 18070A   25353.74268691  .00008209  00000+0  29770-3 0  9990", "line2": "2 43613  92.0049 242.6271 0003001 128.1621 231.9899 15.28316297405051"}}, "geometry": {"type": "Point", "coordinates": [-118.79869810487587, 36.41178266168906]}}, {"type": "Feature", "properties": {"norad_id": 43719, "name": "HYSIS", "group": "resource", "lat": -33.76256639573791, "lon": 62.289807307625175, "alt_km": 639.6857290028001, "timestamp": "2025-12-19T22:41:52.036824+00:00", "meta": {"OBJECT_NAME": "HYSIS", "OBJECT_ID": "2018-096A", "EPOCH": "2025-12-19T17:58:46.756128", "MEAN_MOTION": 14.78665057, "ECCENTRICITY": 0.0001088, "INCLINATION": 98.0095, "RA_OF_ASC_NODE": 56.6931, "ARG_OF_PERICENTER": 52.0674, "MEAN_ANOMALY": 308.0635, "EPHEMERIS_TYPE": 0, "CLASSIFICATION_TYPE": "U", "NORAD_CAT_ID": 43719, "ELEMENT_SET_NO": 999, "REV_AT_EPOCH": 38090, "BSTAR": 0.00020583, "MEAN_MOTION_DOT": 1.456e-05, "MEAN_MOTION_DDOT": 0}, "tle": {"line1": "1 43719U 18096A   25353.74915227  .00001456  00000+0  20583-3 0  9999", "line2": "2 43719  98.0095  56.6931 0001088  52.0674 308.0635 14.78665057380902"}}, "geometry": {"type": "Point", "coordinates": [62.289807307625175, -33.76256639573791]}}, {"type": "Feature", "properties": {"norad_id": 43783, "name": "KAZSTSAT", "group": "resource", "lat": 17.96062286063565, "lon": 26.388544599735987, "alt_km": 568.5406223665686, "timestamp": "2025-12-19T22:41:52.036835+00:00", "meta": {"OBJECT_NAME": "KAZSTSAT", "OBJECT_ID": "2018-099AB", "EPOCH": "2025-12-19T01:47:43.400832", "MEAN_MOTION": 14.99363796, "ECCENTRICITY": 0.00059468, "INCLINATION": 97.4535, "RA_OF_ASC_NODE": 27.9874, "ARG_OF_PERICENTER": 301.8992, "MEAN_ANOMALY": 58.1653, "EPHEMERIS_TYPE": 0, "CLASSIFICATION_TYPE": "U", "NORAD_CAT_ID": 43783, "ELEMENT_SET_NO": 999, "REV_AT_EPOCH": 38431, "BSTAR": 3.2653117e-05, "MEAN_MOTION_DOT": 3.44e-06, "MEAN_MOTION_DDOT": 0}, "tle": {"line1": "1 43783U 18099AB  25353.07480788  .00000344  00000+0  32653-4 0  9995", "line2": "2 43783  97.4535  27.9874 0005946 301.8992  58.1653 14.99363796384317"}}, "geometry": {"type": "Point", "coordinates": [26.388544599735987, 17.96062286063565]}}, {"type": "Feature", "properties": {"norad_id": 43831, "name": "SAUDISAT 5A", "group": "resource", "lat": 32.70101838647777, "lon": 49.254448194379975, "alt_km": 479.3354933635055, "timestamp": "2025-12-19T22:41:52.036845+00:00", "meta": {"OBJECT_NAME": "SAUDISAT 5A", "OBJECT_ID": "2018-102A", "EPOCH": "2025-12-19T17:49:54.454368", "MEAN_MOTION": 15.25737834, "ECCENTRICITY": 0.0011455, "INCLINATION": 97.3347, "RA_OF_ASC_NODE": 53.7992, "ARG_OF_PERICENTER": 54.6605, "MEAN_ANOMALY": 305.5702, "EPHEMERIS_TYPE": 0, "CLASSIFICATION_TYPE": "U", "NORAD_CAT_ID": 43831, "ELEMENT_SET_NO": 999, "REV_AT_EPOCH": 38829, "BSTAR": 0.00017358, "MEAN_MOTION_DOT": 4.364e-05, "MEAN_MOTION_DDOT": 0}, "tle": {"line1": "1 43831U 18102A   25353.74299137  .00004364  00000+0  17358-3 0  9994", "line2": "2 43831  97.3347  53.7992 0011455  54.6605 305.5702 15.25737834388298"}}, "geometry": {"type": "Point", "coordinates": [49.254448194379975, 32.70101838647777]}}, {"type": "Feature", "properties": {"norad_id": 43833, "name": "SAUDISAT 5B", "group": "resource", "lat": 81.35068332050056, "lon": -65.26784187697388, "alt_km": 473.52784373142276, "timestamp": "2025-12-19T22:41:52.036855+00:00", "meta": {"OBJECT_NAME": "SAUDISAT 5B", "OBJECT_ID": "2018-102C", "EPOCH": "2025-12-19T19:08:18.706272", "MEAN_MOTION": 15.26087582, "ECCENTRICITY": 0.0012186, "INCLINATION": 97.3442, "RA_OF_ASC_NODE": 56.6038, "ARG_OF_PERICENTER": 56.7045, "MEAN_ANOMALY": 303.5359, "EPHEMERIS_TYPE": 0, "CLASSIFICATION_TYPE": "U", "NORAD_CAT_ID": 43833, "ELEMENT_SET_NO": 999, "REV_AT_EPOCH": 38841, "BSTAR": 0.00017036, "MEAN_MOTION_DOT": 4.328e-05, "MEAN_MOTION_DDOT": 0}, "tle": {"line1": "1 43833U 18102C   25353.79743873  .00004328  00000+0  17036-3 0  9995", "line2": "2 43833  97.3442  56.6038 0012186  56.7045 303.5359 15.26087582388411"}}, "geometry": {"type": "Point", "coordinates": [-65.26784187697388, 81.35068332050056]}}, {"type": "Feature", "properties": {"norad_id": 44622, "name": "GAOFEN-10R", "group": "resource", "lat": -2.2798721879887003, "lon": -58.197767988666996, "alt_km": 619.002574043956, "timestamp": "2025-12-19T22:41:52.036866+00:00", "meta": {"OBJECT_NAME": "GAOFEN-10R", "OBJECT_ID": "2019-066A", "EPOCH": "2025-12-19T19:28:08.668416", "MEAN_MOTION": 14.82814271, "ECCENTRICITY": 0.0007409, "INCLINATION": 98.0287, "RA_OF_ASC_NODE": 301.3452, "ARG_OF_PERICENTER": 21.5158, "MEAN_ANOMALY": 338.6365, "EPHEMERIS_TYPE": 0, "CLASSIFICATION_TYPE": "U", "NORAD_CAT_ID": 44622, "ELEMENT_SET_NO": 999, "REV_AT_EPOCH": 33579, "BSTAR": 0.00014168, "MEAN_MOTION_DOT": 1.092e-05, "MEAN_MOTION_DDOT": 0}, "tle": {"line1": "1 44622U 19066A   25353.81121144  .00001092  00000+0  14168-3 0  9994", "line2": "2 44622  98.0287 301.3452 0007409  21.5158 338.6365 14.82814271335793"}}, "geometry": {"type": "Point", "coordinates": [-58.197767988666996, -2.2798721879887003]}}]}